start=new Date('2022-09-21T00:00:00.000Z').valueOf();
sats=[{"FILE":"3578736","MEAN_MOTION":"14.98333512","ELEMENT_SET_NO":"999","INCLINATION":"69.9999","RCS_SIZE":"LARGE","MEAN_MOTION_DDOT":"0.0000000000000","APOAPSIS":"574.312","TIME_SYSTEM":"UTC","EPOCH":"2022-09-20T09:42:10.411488","EPHEMERIS_TYPE":"0","LAUNCH_DATE":"2021-09-14","REV_AT_EPOCH":"5750","NORAD_CAT_ID":"49141","OBJECT_TYPE":"PAYLOAD","RA_OF_ASC_NODE":"247.1919","CLASSIFICATION_TYPE":"U","DECAY_DATE":null,"MEAN_ANOMALY":"113.8172","BSTAR":"0.00019944000000","TLE_LINE2":"2 49141  69.9999 247.1919 0003259 246.2645 113.8172 14.98333512 57502","ECCENTRICITY":"0.00032590","COUNTRY_CODE":"US","MEAN_MOTION_DOT":"0.00002288","SEMIMAJOR_AXIS":"6950.182","MEAN_ELEMENT_THEORY":"SGP4","PERIOD":"96.107","GP_ID":"213073200","PERIAPSIS":"569.782","SITE":"AFWTR","REF_FRAME":"TEME","CENTER_NAME":"EARTH","OBJECT_NAME":"STARLINK-3093","ARG_OF_PERICENTER":"246.2645","TLE_LINE1":"1 49141U 21082M   22263.40428717  .00002288  00000-0  19944-3 0  9990","OBJECT_ID":"2021-082M"},{"RCS_SIZE":"LARGE","APOAPSIS":"578.934","TIME_SYSTEM":"UTC","MEAN_MOTION_DDOT":"0.0000000000000","EPOCH":"2022-09-20T13:06:34.302240","ELEMENT_SET_NO":"999","MEAN_MOTION":"14.96722400","FILE":"3578910","INCLINATION":"70.0008","MEAN_ANOMALY":"98.1609","DECAY_DATE":null,"CLASSIFICATION_TYPE":"U","OBJECT_TYPE":"PAYLOAD","RA_OF_ASC_NODE":"206.7468","NORAD_CAT_ID":"49142","TLE_LINE2":"2 49142  70.0008 206.7468 0002732 261.9239  98.1609 14.96722400 57310","BSTAR":"0.00010493000000","REV_AT_EPOCH":"5731","EPHEMERIS_TYPE":"0","LAUNCH_DATE":"2021-09-14","GP_ID":"213100544","PERIAPSIS":"575.134","MEAN_MOTION_DOT":"0.00001110","COUNTRY_CODE":"US","ECCENTRICITY":"0.00027320","PERIOD":"96.210","SEMIMAJOR_AXIS":"6955.169","MEAN_ELEMENT_THEORY":"SGP4","REF_FRAME":"TEME","TLE_LINE1":"1 49142U 21082N   22263.54623035  .00001110  00000-0  10493-3 0  9999","OBJECT_ID":"2021-082N","ARG_OF_PERICENTER":"261.9239","OBJECT_NAME":"STARLINK-3042","CENTER_NAME":"EARTH","SITE":"AFWTR"},{"SITE":"AFWTR","CENTER_NAME":"EARTH","OBJECT_NAME":"STARLINK-3109","ARG_OF_PERICENTER":"246.6271","TLE_LINE1":"1 49143U 21082P   22263.63925929  .00000693  00000-0  65876-4 0  9998","OBJECT_ID":"2021-082P","REF_FRAME":"TEME","SEMIMAJOR_AXIS":"6950.198","MEAN_ELEMENT_THEORY":"SGP4","PERIOD":"96.107","ECCENTRICITY":"0.00045390","COUNTRY_CODE":"US","MEAN_MOTION_DOT":"0.00000693","PERIAPSIS":"568.908","GP_ID":"213124702","LAUNCH_DATE":"2021-09-14","EPHEMERIS_TYPE":"0","REV_AT_EPOCH":"5794","BSTAR":"0.00006587600000","TLE_LINE2":"2 49143  69.9992 226.6077 0004539 246.6271 113.4410 14.98328398 57940","OBJECT_TYPE":"PAYLOAD","RA_OF_ASC_NODE":"226.6077","NORAD_CAT_ID":"49143","CLASSIFICATION_TYPE":"U","DECAY_DATE":null,"MEAN_ANOMALY":"113.4410","INCLINATION":"69.9992","FILE":"3578945","MEAN_MOTION":"14.98328398","ELEMENT_SET_NO":"999","RCS_SIZE":"LARGE","TIME_SYSTEM":"UTC","APOAPSIS":"575.218","MEAN_MOTION_DDOT":"0.0000000000000","EPOCH":"2022-09-20T15:20:32.002656"},{"INCLINATION":"70.0007","FILE":"3578736","MEAN_MOTION":"14.98349621","ELEMENT_SET_NO":"999","APOAPSIS":"573.787","RCS_SIZE":"LARGE","TIME_SYSTEM":"UTC","MEAN_MOTION_DDOT":"0.0000000000000","EPOCH":"2022-09-20T09:35:17.568960","LAUNCH_DATE":"2021-09-14","EPHEMERIS_TYPE":"0","REV_AT_EPOCH":"5630","BSTAR":"-0.00017140000000","TLE_LINE2":"2 49144  70.0007 247.2237 0002575 263.7858  96.3008 14.98349621 56300","OBJECT_TYPE":"PAYLOAD","NORAD_CAT_ID":"49144","RA_OF_ASC_NODE":"247.2237","CLASSIFICATION_TYPE":"U","DECAY_DATE":null,"MEAN_ANOMALY":"96.3008","SEMIMAJOR_AXIS":"6950.132","MEAN_ELEMENT_THEORY":"SGP4","PERIOD":"96.106","ECCENTRICITY":"0.00025750","COUNTRY_CODE":"US","MEAN_MOTION_DOT":"-0.00002138","PERIAPSIS":"570.208","GP_ID":"213072962","SITE":"AFWTR","CENTER_NAME":"EARTH","OBJECT_NAME":"STARLINK-3100","ARG_OF_PERICENTER":"263.7858","TLE_LINE1":"1 49144U 21082Q   22263.39950890 -.00002138  00000-0 -17140-3 0  9995","OBJECT_ID":"2021-082Q","REF_FRAME":"TEME"},{"SITE":"AFWTR","REF_FRAME":"TEME","CENTER_NAME":"EARTH","TLE_LINE1":"1 49145U 21082R   22263.26628312 -.00000002  00000-0  78106-5 0  9991","OBJECT_ID":"2021-082R","OBJECT_NAME":"STARLINK-3119","ARG_OF_PERICENTER":"261.0530","COUNTRY_CODE":"US","ECCENTRICITY":"0.00028630","MEAN_MOTION_DOT":"-0.00000002","PERIOD":"96.211","MEAN_ELEMENT_THEORY":"SGP4","SEMIMAJOR_AXIS":"6955.207","GP_ID":"213072701","PERIAPSIS":"575.080","REV_AT_EPOCH":"5726","EPHEMERIS_TYPE":"0","LAUNCH_DATE":"2021-09-14","CLASSIFICATION_TYPE":"U","NORAD_CAT_ID":"49145","OBJECT_TYPE":"PAYLOAD","RA_OF_ASC_NODE":"207.4496","MEAN_ANOMALY":"99.0304","DECAY_DATE":null,"BSTAR":"0.00000781060000","TLE_LINE2":"2 49145  70.0011 207.4496 0002863 261.0530  99.0304 14.96710115 57262","MEAN_MOTION":"14.96710115","FILE":"3578736","ELEMENT_SET_NO":"999","INCLINATION":"70.0011","RCS_SIZE":"LARGE","MEAN_MOTION_DDOT":"0.0000000000000","APOAPSIS":"579.063","EPOCH":"2022-09-20T06:23:26.861568","TIME_SYSTEM":"UTC"},{"REF_FRAME":"TEME","CENTER_NAME":"EARTH","OBJECT_ID":"2021-082S","TLE_LINE1":"1 49146U 21082S   22263.30068841  .00001151  00000-0  10421-3 0  9991","OBJECT_NAME":"STARLINK-3116","ARG_OF_PERICENTER":"257.2884","SITE":"AFWTR","GP_ID":"213071962","PERIAPSIS":"569.949","COUNTRY_CODE":"US","ECCENTRICITY":"0.00030060","MEAN_MOTION_DOT":"0.00001151","PERIOD":"96.107","MEAN_ELEMENT_THEORY":"SGP4","SEMIMAJOR_AXIS":"6950.173","CLASSIFICATION_TYPE":"U","NORAD_CAT_ID":"49146","OBJECT_TYPE":"PAYLOAD","RA_OF_ASC_NODE":"227.4708","MEAN_ANOMALY":"102.7939","DECAY_DATE":null,"BSTAR":"0.00010421000000","TLE_LINE2":"2 49146  70.0008 227.4708 0003006 257.2884 102.7939 14.98336339 57930","REV_AT_EPOCH":"5793","EPHEMERIS_TYPE":"0","LAUNCH_DATE":"2021-09-14","APOAPSIS":"574.128","RCS_SIZE":"LARGE","MEAN_MOTION_DDOT":"0.0000000000000","EPOCH":"2022-09-20T07:12:59.478624","TIME_SYSTEM":"UTC","MEAN_MOTION":"14.98336339","FILE":"3578736","ELEMENT_SET_NO":"999","INCLINATION":"70.0008"},{"PERIAPSIS":"574.658","GP_ID":"213072212","PERIOD":"96.210","MEAN_ELEMENT_THEORY":"SGP4","SEMIMAJOR_AXIS":"6955.174","COUNTRY_CODE":"US","ECCENTRICITY":"0.00034230","MEAN_MOTION_DOT":"-0.00000624","CENTER_NAME":"EARTH","OBJECT_ID":"2021-082T","TLE_LINE1":"1 49147U 21082T   22263.34087710 -.00000624  00000-0 -46533-4 0  9992","ARG_OF_PERICENTER":"259.4951","OBJECT_NAME":"STARLINK-3071","REF_FRAME":"TEME","SITE":"AFWTR","RCS_SIZE":"LARGE","APOAPSIS":"579.420","MEAN_MOTION_DDOT":"0.0000000000000","EPOCH":"2022-09-20T08:10:51.781440","TIME_SYSTEM":"UTC","INCLINATION":"70.0004","MEAN_MOTION":"14.96720694","FILE":"3578736","ELEMENT_SET_NO":"999","BSTAR":"-0.00004653300000","TLE_LINE2":"2 49147  70.0004 207.2631 0003423 259.4951 100.5822 14.96720694 57284","CLASSIFICATION_TYPE":"U","OBJECT_TYPE":"PAYLOAD","NORAD_CAT_ID":"49147","RA_OF_ASC_NODE":"207.2631","MEAN_ANOMALY":"100.5822","DECAY_DATE":null,"REV_AT_EPOCH":"5728","LAUNCH_DATE":"2021-09-14","EPHEMERIS_TYPE":"0"},{"GP_ID":"213152835","PERIAPSIS":"570.165","MEAN_MOTION_DOT":"-0.00000176","COUNTRY_CODE":"US","ECCENTRICITY":"0.00027200","PERIOD":"96.107","MEAN_ELEMENT_THEORY":"SGP4","SEMIMAJOR_AXIS":"6950.190","REF_FRAME":"TEME","OBJECT_ID":"2021-082U","TLE_LINE1":"1 49148U 21082U   22264.03028761 -.00000176  00000-0 -69892-5 0  9997","ARG_OF_PERICENTER":"253.8971","OBJECT_NAME":"STARLINK-3048","CENTER_NAME":"EARTH","SITE":"AFWTR","EPOCH":"2022-09-21T00:43:36.849504","RCS_SIZE":"LARGE","APOAPSIS":"573.946","MEAN_MOTION_DDOT":"0.0000000000000","TIME_SYSTEM":"UTC","ELEMENT_SET_NO":"999","MEAN_MOTION":"14.98330907","FILE":"3578986","INCLINATION":"69.9994","MEAN_ANOMALY":"106.1888","DECAY_DATE":null,"CLASSIFICATION_TYPE":"U","NORAD_CAT_ID":"49148","OBJECT_TYPE":"PAYLOAD","RA_OF_ASC_NODE":"225.6241","TLE_LINE2":"2 49148  69.9994 225.6241 0002720 253.8971 106.1888 14.98330907 58012","BSTAR":"-0.00000698920000","REV_AT_EPOCH":"5801","EPHEMERIS_TYPE":"0","LAUNCH_DATE":"2021-09-14"},{"EPOCH":"2022-09-20T15:52:57.508608","RCS_SIZE":"LARGE","APOAPSIS":"574.177","MEAN_MOTION_DDOT":"0.0000000000000","TIME_SYSTEM":"UTC","FILE":"3578945","MEAN_MOTION":"14.98341382","ELEMENT_SET_NO":"999","INCLINATION":"69.9995","RA_OF_ASC_NODE":"246.5572","OBJECT_TYPE":"PAYLOAD","NORAD_CAT_ID":"49149","CLASSIFICATION_TYPE":"U","DECAY_DATE":null,"MEAN_ANOMALY":"101.6931","BSTAR":"-0.00000345010000","TLE_LINE2":"2 49149  69.9995 246.5572 0003099 258.3881 101.6931 14.98341382 57537","LAUNCH_DATE":"2021-09-14","EPHEMERIS_TYPE":"0","REV_AT_EPOCH":"5753","GP_ID":"213123702","PERIAPSIS":"569.869","ECCENTRICITY":"0.00030990","COUNTRY_CODE":"US","MEAN_MOTION_DOT":"-0.00000134","MEAN_ELEMENT_THEORY":"SGP4","SEMIMAJOR_AXIS":"6950.158","PERIOD":"96.106","REF_FRAME":"TEME","CENTER_NAME":"EARTH","OBJECT_NAME":"STARLINK-3053","ARG_OF_PERICENTER":"258.3881","TLE_LINE1":"1 49149U 21082V   22263.66177672 -.00000134  00000-0 -34501-5 0  9995","OBJECT_ID":"2021-082V","SITE":"AFWTR"},{"MEAN_MOTION":"14.98330250","FILE":"3578736","ELEMENT_SET_NO":"999","INCLINATION":"69.9993","RCS_SIZE":"LARGE","APOAPSIS":"574.299","MEAN_MOTION_DDOT":"0.0000000000000","TIME_SYSTEM":"UTC","EPOCH":"2022-09-20T09:21:33.374304","REV_AT_EPOCH":"5749","LAUNCH_DATE":"2021-09-14","EPHEMERIS_TYPE":"0","CLASSIFICATION_TYPE":"U","NORAD_CAT_ID":"49150","OBJECT_TYPE":"PAYLOAD","RA_OF_ASC_NODE":"247.2429","MEAN_ANOMALY":"103.4877","DECAY_DATE":null,"BSTAR":"0.00014345000000","TLE_LINE2":"2 49150  69.9993 247.2429 0003225 256.5923 103.4877 14.98330250 57490","COUNTRY_CODE":"US","ECCENTRICITY":"0.00032250","MEAN_MOTION_DOT":"0.00001619","PERIOD":"96.107","MEAN_ELEMENT_THEORY":"SGP4","SEMIMAJOR_AXIS":"6950.192","GP_ID":"213071463","PERIAPSIS":"569.816","SITE":"AFWTR","REF_FRAME":"TEME","CENTER_NAME":"EARTH","TLE_LINE1":"1 49150U 21082W   22263.38996961  .00001619  00000-0  14345-3 0  9995","OBJECT_ID":"2021-082W","OBJECT_NAME":"STARLINK-3104","ARG_OF_PERICENTER":"256.5923"}];
